#cP2015  5 28  0  0  0.00000000      96 ORBIT IGb08 HLM  IGS
## 1846 345600.00000000   900.00000000 57170 0.0000000000000
+   32   G01G02G03G04G05G06G07G08G09G10G11G12G13G14G15G16G17
+        G18G19G20G21G22G23G24G25G26G27G28G29G30G31G32  0  0
+          0  0  0  0  0  0  0  0  0  0  0  0  0  0  0  0  0
+          0  0  0  0  0  0  0  0  0  0  0  0  0  0  0  0  0
+          0  0  0  0  0  0  0  0  0  0  0  0  0  0  0  0  0
++         2  3  2  2  2  2  2  0  0  2  2  2  2  2  2  3  2
++         2  2  3  2  2  3  2  2  2  2  2  3  2  2  2  0  0
++         0  0  0  0  0  0  0  0  0  0  0  0  0  0  0  0  0
++         0  0  0  0  0  0  0  0  0  0  0  0  0  0  0  0  0
++         0  0  0  0  0  0  0  0  0  0  0  0  0  0  0  0  0
%c G  cc GPS ccc cccc cccc cccc cccc ccccc ccccc ccccc ccccc
%c cc cc ccc ccc cccc cccc cccc cccc ccccc ccccc ccccc ccccc
%f  1.2500000  1.025000000  0.00000000000  0.000000000000000
%f  0.0000000  0.000000000  0.00000000000  0.000000000000000
%i    0    0    0    0      0      0      0      0         0
%i    0    0    0    0      0      0      0      0         0
/* RAPID ORBIT COMBINATION FROM WEIGHTED AVERAGE OF:        
/* cod emr esa gfz jpl ngs sio usn                          
/* REFERENCED TO IGS TIME (IGST) AND TO WEIGHTED MEAN POLE: 
/* PCV:IGS08_1844 OL/AL:FES2004  NONE     Y  ORB:CMB CLK:CMB
*  2015  5 28 12  0  0.00000000
PG01 -16952.528055  -3025.096772  20220.965232     -5.025163  5  5  5  96       
PG02  15042.647514  21537.017445  -4921.142115    568.580452 10  7  4 105       
PG03 -19418.427411   7895.230819  16347.567034    338.044048  5  7  2  75       
PG04 -18119.683197 -12647.411939  14602.334183    -16.600235  6  4  5 123       
PG05  10534.009344  11844.288891 -21340.542175   -236.199038  9  8  7  99       
PG06   5270.663694  24662.292383   8348.516130    171.290639  7  4  6  94       
PG07 -10579.158480  11849.704909 -21119.287624    465.063698  9  7  3 119       
PG08   4738.890195 -22210.064696 -13764.086675 999999.999999
PG09 -21411.813211   7920.617046 -13594.585073 999999.999999
PG10  -6082.458401  23131.565427 -11468.415619   -176.703338  7  2  5  98       
PG11 -21658.687098  -6053.859711  13696.554250   -581.221395  9  7  4 103       
PG12  18511.453672  -4391.828272  18335.032162    296.678748 11  5  8  94       
PG13  19374.934693  12753.624050 -12969.270196   -118.350712  7  8  7  88       
PG14   3249.283108 -14855.905167  22012.983075     60.209654  7  5  7  82       
PG15  26155.641772   3877.675526  -4026.412220   -251.765239 10  9  6  85       
PG16  -8823.274378 -12075.658597 -21986.022038   -124.699854  9  7  6 116       
PG17  -3270.528626  14772.880446  22116.946985   -173.259992  6  6  7  87       
PG18  14840.500910 -21808.683163   -412.794718    404.911804 10  7  7 113       
PG19 -24787.837375  -8498.771305  -5863.190845   -511.751866  9  6  7  68       
PG20  15075.995147   5909.321423 -21262.914250    324.221607  4  8  7  70       
PG21   8922.782845 -14590.654969 -19529.514737   -450.174936  8  6  6 116       
PG22   6533.464679 -23671.774161  10128.868239    354.991008  8  5  5 116       
PG23 -26416.316563    791.521839  -4281.904601   -111.228435  9  5  8  70       
PG24  17791.566279   5815.676873  18861.089892    -49.010216  6  6  6 100       
PG25  18739.526185 -16287.593734   9097.972210    -33.777247  1  4  6 100       
PG26   -732.940494 -20194.169975 -17242.072011     30.694116  7  7  6  89       
PG27 -17924.060422 -12124.725215 -15496.205465     75.114427  8  6  7  85       
PG28 -11659.242906  22704.559071   7793.945593    442.909277  6  6  6 100       
PG29  22811.157520  -5400.590489 -12418.455005    613.236250 11  8  7  87       
PG30  -3547.085565  21256.998110 -15493.667111    -53.024939  7  6  3 104       
PG31  -6958.090151 -24934.068861   5203.829618    314.615872  7  6  6  64       
PG32 -13803.310409  -7435.551141  21375.010113   -139.888627  3  8  5 104       
*  2015  5 28 12 15  0.00000000
PG01 -17876.304924  -5077.370481  18996.781215     -5.024700  6  5  5 101       
PG02  15013.830605  22058.298028  -2170.333448    568.582588  9  7  5  99       
PG03 -18483.294783   6158.134537  18084.109191    338.051939  5  7     91       
PG04 -18660.806869 -14162.212609  12440.841871    -16.602110  6  3  5 113       
PG05   9185.301926  13836.929347 -20738.478835   -236.194989  9  7  8 101       
PG06   4564.789984  23787.144970  10910.365387    171.298725  7  5  6  82       
PG07 -11706.226980   9648.396654 -21668.668591    465.065980  9  7  2 110       
PG08   5669.319782 -23289.485319 -11367.767031 999999.999999
PG09 -22822.018002   7641.776300 -11260.181904 999999.999999
PG10  -6952.472407  23918.698429  -8970.022901   -176.703663  7  2  5  87       
PG11 -22536.964287  -7361.374677  11566.742542   -581.223709  9  7  5 117       
PG12  17313.204498  -2541.403821  19808.329320    296.681570 10  5  7  89       
PG13  17777.095424  12667.460811 -15188.279941   -118.353298  7  8  7  90       
PG14   5676.585538 -14521.157855  21725.744043     60.207046  6  4  7  74       
PG15  25553.562465   4172.909402  -6719.468796   -251.767378 10  8  6  78       
PG16  -7315.445561 -14021.379601 -21340.897719   -124.696475  8  7  6 116       
PG17  -5702.767324  14511.400275  21771.546403   -173.261201  7  6  7  49       
PG18  15027.472625 -21384.471441  -3202.497436    404.914658 10  7  8 105       
PG19 -23979.783047  -8563.692887  -8552.043672   -511.753169  9  6  7  92       
PG20  13925.630580   8026.601103 -21345.644103    324.224748  6  8  7  70       
PG21  10181.682390 -12494.533047 -20354.384270   -450.178003  8  6  5 118       
PG22   7344.727217 -24341.376979   7597.151391    354.994616  9  5  6 119       
PG23 -26745.691051    519.342102  -1500.944933   -111.230952  9  6  8 102       
PG24  18640.366649   7713.499904  17312.737190    -49.010230  6  6  6 100       
PG25  18250.555206 -15171.037715  11652.658949    -33.780785  2  4  6  97       
PG26    416.824326 -21671.111436 -15354.866457     30.694190  8  7  6  99       
PG27 -16046.671333 -12186.740795 -17381.808962     75.116846  9  6  6  47       
PG28 -12186.797543  23132.303445   5000.531807    442.911586  5  6  6  95       
PG29  24066.508291  -5077.400606  -9938.461389    613.238246 11  8  7  99       
PG30  -4444.529050  19594.508381 -17350.268839    -53.019658  8  6  4  96       
PG31  -6433.826564 -24358.163761   7973.326157    314.614862  8  6  6  73       
PG32 -12330.387208  -9414.488311  21543.210594   -139.880008  4  8  5  99       
*  2015  5 28 12 30  0.00000000
PG01 -18826.873952  -6940.979403  17446.234226     -5.024246  7  5  5  98       
PG02  14848.108308  22316.048355    616.994058    568.584819  9  6  6  98       
PG03 -17551.613982   4218.998364  19510.209338    338.059805  4  7  1  71       
PG04 -19141.977860 -15425.778317  10064.356991    -16.603652  6  1  5 110       
PG05   7979.254410  15818.847339 -19779.927010   -236.190753  9  6  7 106       
PG06   3671.611072  22709.763274  13284.544618    171.306872  6  5  6  75       
PG07 -12966.878555   7477.222948 -21840.589007    465.068209 10  7  2 108       
PG08   6396.918211 -24175.323222  -8775.127625 999999.999999
PG09 -23969.726240   7432.413821  -8732.227637 999999.999999
PG10  -7641.778328  24495.041636  -6315.790618   -176.705532  8  3  5  87       
PG11 -23274.320801  -8464.955677   9233.724345   -581.226022  9  6  6  80       
PG12  16142.425823   -501.773440  20935.756930    296.684585 10  6  7  84       
PG13  15943.321333  12643.870976 -17146.876555   -118.356382  7  7  7  93       
PG14   8067.662340 -14320.438016  21072.201752     60.204599  7  3  7  77       
PG15  24672.111482   4513.202827  -9299.309285   -251.769042  9  8  6 101       
PG16  -5969.286790 -15973.470094 -20328.655829   -124.692909  8  7  6 113       
PG17  -8089.140434  14385.111597  21060.607902   -173.263056  7  6  6  37       
PG18  15086.831642 -20690.317638  -5935.592774    404.917230 10  7  8 107       
PG19 -22885.157481  -8647.828325 -11098.587011   -511.754016  9  6  7  49       
PG20  12880.689732  10186.875402 -21067.637697    324.228033  8  8  8 102       
PG21  11572.324589 -10395.879420 -20804.370041   -450.180897  6  6  4 101       
PG22   7987.121642 -24790.640482   4934.346034    354.998352 10  5  6 113       
PG23 -26775.751524    264.291921   1305.198490   -111.233051  9  6  8  92       
PG24  19484.664510   9400.691018  15467.239323    -49.011258  6  5  6  92       
PG25  17685.737801 -13785.476801  14004.038379    -33.784323  3  5  7  91       
PG26   1376.358913 -23006.626622 -13203.494623     30.694262  8  6  7  74       
PG27 -13978.339515 -12351.732646 -18969.997711     75.119204  8  6  6  67       
PG28 -12517.688700  23320.041609   2121.688962    442.914046  6  6  6  98       
PG29  25046.355367  -4835.152655  -7286.802091    613.240488 11  7  7  71       
PG30  -5511.134108  17807.283375 -18907.849127    -53.014360  9  7  5 106       
PG31  -5733.115823 -23541.359040  10603.502822    314.613908  8  5  6  69       
PG32 -10962.147724 -11458.275915  21340.201725   -139.871352  5  7  5 106       
EOF
